NORAD_CAT_ID,OBJECT_NAME,OBJECT_TYPE,EPOCH,MEAN_MOTION,ECCENTRICITY,INCLINATION,RA_OF_ASC_NODE,ARG_OF_PERICENTER,MEAN_ANOMALY,BSTAR,MEAN_MOTION_DOT,MEAN_MOTION_DDOT,TLE_LINE0,TLE_LINE1,TLE_LINE2,SEMIMAJOR_AXIS,PERIOD,APOGEE,PERIGEE,DECAYED
53887.0,STARLINK-5029,PAYLOAD,2023-04-03 04:40:13,15.08835743,0.0001207,53.2176,94.3611,93.6773,266.4357,5.2528e-05,5.48e-06,0.0,0 STARLINK-5029,1 53887U 22119B   23093.19460313  .00000548  00000-0  52528-4 0  9993,2 53887  53.2176  94.3611 0001207  93.6773 266.4357 15.08835743 29509,6917.893,95.438,540.593,538.923,0.0
53887.0,STARLINK-5029,PAYLOAD,2023-04-03 06:15:36,15.08838613,0.0001162,53.2173,94.0633,96.0677,264.0447,3.425e-05,2.57e-06,0.0,0 STARLINK-5029,1 53887U 22119B   23093.26084187  .00000257  00000-0  34250-4 0  9991,2 53887  53.2173  94.0633 0001162  96.0677 264.0447 15.08838613 29937,6917.885,95.438,540.553,538.946,0.0
53887.0,STARLINK-5029,PAYLOAD,2023-04-03 17:23:18,15.08838397,0.0001152,53.217,91.9826,91.7528,268.3596,2.7782e-05,1.54e-06,0.0,0 STARLINK-5029,1 53887U 22119B   23093.72452239  .00000154  00000-0  27782-4 0  9997,2 53887  53.2170  91.9826 0001152  91.7528 268.3596 15.08838397 30001,6917.885,95.438,540.547,538.953,0.0
53887.0,STARLINK-5029,PAYLOAD,2023-04-04 09:17:09,15.0884201,0.0001218,53.2171,89.0089,89.3437,270.7694,1.0948e-05,-1.14e-06,0.0,0 STARLINK-5029,1 53887U 22119B   23094.38692086 -.00000114  00000-0  10948-4 0  9999,2 53887  53.2171  89.0089 0001218  89.3437 270.7694 15.08842010 29681,6917.874,95.437,540.582,538.897,0.0
53887.0,STARLINK-5029,PAYLOAD,2023-04-05 09:07:57,15.08838714,0.0001257,53.2173,84.547,93.2724,266.8411,-2.3563e-05,-6.63e-06,0.0,0 STARLINK-5029,1 53887U 22119B   23095.38052447 -.00000663  00000-0 -23563-4 0  9998,2 53887  53.2173  84.5470 0001257  93.2724 266.8411 15.08838714 29839,6917.884,95.438,540.619,538.88,0.0
53887.0,STARLINK-5029,PAYLOAD,2023-04-06 08:58:43,15.08847695,0.0001308,53.2185,80.0876,86.6631,273.4511,2.571e-05,1.21e-06,0.0,0 STARLINK-5029,1 53887U 22119B   23096.37411688  .00000121  00000-0  25710-4 0  9997,2 53887  53.2185  80.0876 0001308  86.6631 273.4511 15.08847695 29982,6917.857,95.437,540.627,538.817,0.0
53887.0,STARLINK-5029,PAYLOAD,2023-04-06 15:20:16,15.08839725,0.0001305,53.2191,78.8976,83.6584,276.4557,-4.2135e-05,-9.58e-06,0.0,0 STARLINK-5029,1 53887U 22119B   23096.63908306 -.00000958  00000-0 -42135-4 0  9994,2 53887  53.2191  78.8976 0001305  83.6584 276.4557 15.08839725 30021,6917.881,95.438,540.649,538.843,0.0
53887.0,STARLINK-5029,PAYLOAD,2023-04-07 02:27:59,15.08834164,0.0001276,53.2184,76.8166,92.056,268.0578,-4.4806e-05,-1.001e-05,0.0,0 STARLINK-5029,1 53887U 22119B   23097.10276893 -.00001001  00000-0 -44806-4 0  9993,2 53887  53.2184  76.8166 0001276  92.0560 268.0578 15.08834164 30096,6917.898,95.438,540.646,538.881,0.0
53887.0,STARLINK-5029,PAYLOAD,2023-04-07 08:49:31,15.08839377,0.000125,53.2182,75.6278,89.3234,270.7902,-8.5008e-06,-4.23e-06,0.0,0 STARLINK-5029,1 53887U 22119B   23097.36772471 -.00000423  00000-0 -85008-5 0  9991,2 53887  53.2182  75.6278 0001250  89.3234 270.7902 15.08839377 30557,6917.882,95.438,540.612,538.883,0.0
53887.0,STARLINK-5029,PAYLOAD,2023-04-08 05:29:32,15.08834065,0.0001301,53.2184,71.763,103.2894,256.8244,-2.297e-05,-6.53e-06,0.0,0 STARLINK-5029,1 53887U 22119B   23098.22885062 -.00000653  00000-0 -22970-4 0  9991,2 53887  53.2184  71.7630 0001301 103.2894 256.8244 15.08834065 30264,6917.899,95.438,540.664,538.864,0.0
53887.0,STARLINK-5029,PAYLOAD,2023-04-08 07:04:55,15.08826597,0.0001342,53.2185,71.4654,100.4706,259.6437,8.5361e-05,1.07e-05,0.0,0 STARLINK-5029,1 53887U 22119B   23098.29509156  .00001070  00000-0  85361-4 0  9990,2 53887  53.2185  71.4654 0001342 100.4706 259.6437 15.08826597 30697,6917.921,95.438,540.715,538.858,0.0
53887.0,STARLINK-5029,PAYLOAD,2023-04-09 08:31:05,15.08841268,0.0001255,53.2185,66.7079,91.8405,268.2731,3.1233e-05,2.09e-06,0.0,0 STARLINK-5029,1 53887U 22119B   23099.35492768  .00000209  00000-0  31233-4 0  9990,2 53887  53.2185  66.7079 0001255  91.8405 268.2731 15.08841268 30434,6917.877,95.437,540.61,538.873,0.0
53887.0,STARLINK-5029,PAYLOAD,2023-04-10 03:35:43,15.0882141,0.000116,53.2183,63.1385,92.3485,267.764,0.00027071,4.021e-05,0.0,0 STARLINK-5029,1 53887U 22119B   23100.14981422  .00004021  00000-0  27071-3 0  9990,2 53887  53.2183  63.1385 0001160  92.3485 267.7640 15.08821410 30555,6917.937,95.439,540.605,539.0,0.0
53887.0,STARLINK-5029,PAYLOAD,2023-04-10 06:46:29,15.08841805,0.0001174,53.2179,62.5433,89.5709,270.5418,4.8312e-05,4.81e-06,0.0,0 STARLINK-5029,1 53887U 22119B   23100.28228744  .00000481  00000-0  48312-4 0  9994,2 53887  53.2179  62.5433 0001174  89.5709 270.5418 15.08841805 30576,6917.875,95.437,540.552,538.928,0.0
53887.0,STARLINK-5029,PAYLOAD,2023-04-10 21:04:58,15.08839754,0.0001157,53.2184,59.867,88.9654,271.147,-1.4936e-05,-5.26e-06,0.0,0 STARLINK-5029,1 53887U 22119B   23100.87845145 -.00000526  00000-0 -14936-4 0  9996,2 53887  53.2184  59.8670 0001157  88.9654 271.1470 15.08839754 31089,6917.881,95.438,540.547,538.946,0.0
53887.0,STARLINK-5029,PAYLOAD,2023-04-11 06:37:16,15.08847038,0.0001176,53.2187,58.0829,86.867,273.2456,3.2847e-05,2.35e-06,0.0,0 STARLINK-5029,1 53887U 22119B   23101.27588427  .00000235  00000-0  32847-4 0  9994,2 53887  53.2187  58.0829 0001176  86.8670 273.2456 15.08847038 31143,6917.859,95.437,540.537,538.91,0.0
53887.0,STARLINK-5029,PAYLOAD,2023-04-11 20:55:45,15.08836572,0.0001441,53.2184,55.4066,85.6774,274.4383,-1.9283e-05,-5.95e-06,0.0,0 STARLINK-5029,1 53887U 22119B   23101.87205295 -.00000595  00000-0 -19283-4 0  9999,2 53887  53.2184  55.4066 0001441  85.6774 274.4383 15.08836572 31234,6917.891,95.438,540.753,538.759,0.0
53887.0,STARLINK-5029,PAYLOAD,2023-04-12 03:17:17,15.08840271,0.0001158,53.2185,54.2174,94.1436,265.9689,-1.7783e-05,-5.71e-06,0.0,0 STARLINK-5029,1 53887U 22119B   23102.13701018 -.00000571  00000-0 -17783-4 0  9990,2 53887  53.2185  54.2174 0001158  94.1436 265.9689 15.08840271 30859,6917.88,95.438,540.546,538.943,0.0
53887.0,STARLINK-5029,PAYLOAD,2023-04-12 06:28:03,15.08841608,0.0001194,53.2183,53.6222,95.2233,264.8895,-2.6851e-06,-3.31e-06,0.0,0 STARLINK-5029,1 53887U 22119B   23102.26948859 -.00000331  00000-0 -26851-5 0  9991,2 53887  53.2183  53.6222 0001194  95.2233 264.8895 15.08841608 31292,6917.875,95.437,540.566,538.914,0.0
53887.0,STARLINK-5029,PAYLOAD,2023-04-13 06:18:50,15.08841582,0.0001163,53.2182,49.161,96.0367,264.0758,-1.4049e-05,-5.11e-06,0.0,0 STARLINK-5029,1 53887U 22119B   23103.26308897 -.00000511  00000-0 -14049-4 0  9999,2 53887  53.2182  49.1610 0001163  96.0367 264.0758 15.08841582 31443,6917.876,95.437,540.545,538.936,0.0
53887.0,STARLINK-5029,PAYLOAD,2023-04-14 04:34:14,15.08839547,0.0001079,53.219,44.9999,89.9442,270.1674,2.5866e-05,1.24e-06,0.0,0 STARLINK-5029,1 53887U 22119B   23104.19045101  .00000124  00000-0  25866-4 0  9995,2 53887  53.2190  44.9999 0001079  89.9442 270.1674 15.08839547 31584,6917.882,95.438,540.493,539.0,0.0
53887.0,STARLINK-5029,PAYLOAD,2023-04-15 02:49:38,15.08844934,0.0001118,53.219,40.8402,115.9873,244.1235,-3.1402e-05,-7.88e-06,0.0,0 STARLINK-5029,1 53887U 22119B   23105.11781104 -.00000788  00000-0 -31402-4 0  9999,2 53887  53.2190  40.8402 0001118 115.9873 244.1235 15.08844934 31300,6917.865,95.437,540.504,538.957,0.0
53887.0,STARLINK-5029,PAYLOAD,2023-04-15 06:00:24,15.08849073,0.0001094,53.2184,40.2421,90.4483,269.6634,4.0928e-05,3.64e-06,0.0,0 STARLINK-5029,1 53887U 22119B   23105.25028562  .00000364  00000-0  40928-4 0  9997,2 53887  53.2184  40.2421 0001094  90.4483 269.6634 15.08849073 31321,6917.853,95.437,540.474,538.961,0.0
53887.0,STARLINK-5029,PAYLOAD,2023-04-16 04:15:48,15.0884839,0.0001179,53.2189,36.0819,104.4445,255.6678,7.7676e-05,9.49e-06,0.0,0 STARLINK-5029,1 53887U 22119B   23106.17764803  .00000949  00000-0  77676-4 0  9993,2 53887  53.2189  36.0819 0001179 104.4445 255.6678 15.08848390 31467,6917.855,95.437,540.535,538.904,0.0
53887.0,STARLINK-5029,PAYLOAD,2023-04-17 04:06:35,15.08850324,0.0001184,53.2185,31.6188,115.1019,245.0096,4.7787e-05,4.73e-06,0.0,0 STARLINK-5029,1 53887U 22119B   23107.17124817  .00000473  00000-0  47787-4 0  9991,2 53887  53.2185  31.6188 0001184 115.1019 245.0096 15.08850324 31619,6917.849,95.437,540.533,538.895,0.0
53887.0,STARLINK-5029,PAYLOAD,2023-04-17 18:25:05,15.08830853,0.0001336,53.2187,28.9429,118.1984,241.9143,2.6797e-05,1.39e-06,0.0,0 STARLINK-5029,1 53887U 22119B   23107.76742195  .00000139  00000-0  26797-4 0  9998,2 53887  53.2187  28.9429 0001336 118.1984 241.9143 15.08830853 31704,6917.908,95.438,540.698,538.849,0.0
53887.0,STARLINK-5029,PAYLOAD,2023-04-18 03:57:23,15.0884306,0.0001388,53.2187,27.1603,116.7095,243.4039,-4.2169e-05,-9.59e-06,0.0,0 STARLINK-5029,1 53887U 22119B   23108.16485762 -.00000959  00000-0 -42169-4 0  9990,2 53887  53.2187  27.1603 0001388 116.7095 243.4039 15.08843060 32181,6917.871,95.437,540.696,538.776,0.0
53887.0,STARLINK-5029,PAYLOAD,2023-04-19 03:48:10,15.08847639,0.0001274,53.2194,22.6985,115.5627,244.5497,-3.912e-06,-3.5e-06,0.0,0 STARLINK-5029,1 53887U 22119B   23109.15845564 -.00000350  00000-0 -39120-5 0  9999,2 53887  53.2194  22.6985 0001274 115.5627 244.5497 15.08847639 32337,6917.857,95.437,540.603,538.841,0.0
53887.0,STARLINK-5029,PAYLOAD,2023-04-20 00:28:11,15.08838315,0.0001086,53.2181,18.8327,102.321,257.7904,-1.4557e-05,-5.19e-06,0.0,0 STARLINK-5029,1 53887U 22119B   23110.01958299 -.00000519  00000-0 -14557-4 0  9999,2 53887  53.2181  18.8327 0001086 102.3210 257.7904 15.08838315 32467,6917.886,95.438,540.502,538.999,0.0
53887.0,STARLINK-5029,PAYLOAD,2023-04-21 00:18:59,15.08837509,0.0001083,53.2192,14.3732,99.0613,261.0502,-8.5666e-05,-1.651e-05,0.0,0 STARLINK-5029,1 53887U 22119B   23111.01319032 -.00001651  00000-0 -85666-4 0  9993,2 53887  53.2192  14.3732 0001083  99.0613 261.0502 15.08837509 32619,6917.888,95.438,540.502,539.004,0.0
